OBJECT_NAME,OBJECT_ID,EPOCH,MEAN_MOTION,ECCENTRICITY,INCLINATION,RA_OF_ASC_NODE,ARG_OF_PERICENTER,MEAN_ANOMALY,EPHEMERIS_TYPE,CLASSIFICATION_TYPE,NORAD_CAT_ID,ELEMENT_SET_NO,REV_AT_EPOCH,BSTAR,MEAN_MOTION_DOT,MEAN_MOTION_DDOT
PERSEUS-M1,2014-033AF,2026-06-15T10:19:54.528672,14.95626197,.0010432,97.9642,110.5335,308.1412,51.8868,0,U,40039,999,65037,.10467E-3,.1103E-4,0
POLYITAN-1,2014-033AJ,2026-06-15T00:41:55.221504,15.33192699,.00084899,98.0936,192.0858,147.5892,212.5872,0,U,40042,999,65326,.55495063E-3,.17749E-3,0
TIGRISAT,2014-033AK,2026-06-15T08:44:21.238080,14.85156509,.0050644,97.7826,316.4173,81.0598,279.6345,0,U,40043,999,64535,.22485E-3,.1914E-4,0
AEROCUBE 6A,2014-033AM,2026-06-15T10:05:34.949760,14.98093876,.0039064,97.7235,333.3875,24.0890,336.2148,0,U,40045,999,64635,.41492E-3,.4928E-4,0
AEROCUBE 6B,2014-033AN,2026-06-15T10:11:24.818784,14.99555300,.0038455,97.7236,333.1780,15.4316,344.8070,0,U,40046,999,64649,.35005E-3,.4308E-4,0
CANX-4,2014-034C,2026-06-15T12:44:10.929120,14.81262041,.0013282,98.3124,41.7830,22.1909,337.9874,0,U,40055,999,64428,.11004E-3,.801E-5,0
CANX-5,2014-034D,2026-06-15T12:41:57.225120,14.81279243,.0013289,98.3126,41.8248,22.3751,337.8037,0,U,40056,999,63509,.11058E-3,.806E-5,0
UKUBE-1,2014-037F,2026-06-15T12:22:17.283648,15.13531578,.0002584,98.4228,169.6117,134.1984,225.9457,0,U,40074,999,64830,.37622E-3,.6665E-4,0
BRITE-PL2 (HEWELIUSZ),2014-049B,2026-06-15T07:08:47.664096,14.94587421,.0015224,97.9096,278.2832,114.0820,246.1994,0,U,40119,999,64116,.13089E-3,.1359E-4,0
AEROCUBE 5C,2015-058B,2026-06-15T13:28:37.933824,14.91447633,.0130681,64.7679,267.6472,63.9056,297.5436,0,U,40965,999,36541,.18827E-3,.2043E-4,0
AEROCUBE 7,2015-058C,2026-06-15T11:53:45.346272,14.95716759,.0120413,64.7627,250.1146,62.3578,298.9698,0,U,40966,999,36570,.23334E-3,.2831E-4,0
FOX-1A (AO-85),2015-058D,2026-06-15T12:59:49.193376,14.90963105,.0130352,64.7762,284.0978,57.2296,304.1297,0,U,40967,999,11332,.19529E-3,.2095E-4,0
SINOD-D 1,2015-058E,2026-06-15T12:58:34.154976,14.95897303,.0118948,64.7760,264.0688,53.7334,307.4700,0,U,40968,999,11641,.22734E-3,.2758E-4,0
SNAP-3 ALICE,2015-058G,2026-06-15T06:00:32.424192,15.59675006,.0028652,64.7500,110.6240,14.1529,346.0413,0,U,40970,999,11658,.11565E-2,.95622E-3,0
LMRST-SAT,2015-058H,2026-06-15T10:18:14.409216,14.90583096,.0131981,64.7767,280.7808,59.3116,302.0924,0,U,40971,999,11329,.17564E-3,.1854E-4,0
SNAP-3 EDDIE,2015-058J,2026-06-15T10:25:16.366080,15.60973752,.0028139,64.7429,100.7267,17.9086,342.3044,0,U,40972,999,11875,.11968E-2,.104076E-2,0
PROPCUBE 3,2015-058K,2026-06-15T12:52:04.228320,14.94250037,.0123954,64.7688,257.6942,60.5643,300.7773,0,U,40973,999,11455,.21059E-3,.2455E-4,0
BISONSAT,2015-058L,2026-06-15T09:13:13.922688,15.16153901,.007888,64.7577,179.4739,48.0183,312.7625,0,U,40974,999,11534,.43228E-3,.8868E-4,0
SNAP-3 JIMI,2015-058M,2026-06-15T12:35:57.486624,15.02286136,.0106067,64.7640,225.0320,56.0418,305.0725,0,U,40975,999,11397,.26264E-3,.3739E-4,0
PROPCUBE 1 (FLORA),2015-058N,2026-06-15T12:24:25.037280,14.89215783,.0130664,64.7756,300.4122,61.5755,299.8452,0,U,40976,999,11601,.1999E-3,.2048E-4,0
SINOD-D 3,2015-058P,2026-06-15T12:00:55.368576,14.94007278,.0119175,64.7737,281.0853,58.7985,302.4744,0,U,40977,999,11450,.23822E-3,.275E-4,0
HORYU-4,2016-012D,2026-06-15T10:27:05.146272,15.94546005,.0005149,30.9849,91.8834,261.3375,98.6703,0,U,41340,999,57053,.97992E-3,.392649E-2,.54783E-4
RAVAN,2016-067B,2026-06-15T05:47:36.395808,15.54518227,.0004713,97.9893,55.5895,37.6149,322.5432,0,U,41849,999,52739,.65707E-3,.43365E-3,0
CELTEE 1,2016-067C,2026-06-15T08:43:21.783648,15.19667122,.0000857,98.0674,32.8064,123.3354,236.7961,0,U,41850,999,52560,.21375E-3,.4482E-4,0
OPTICUBE 04,2016-067D,2026-06-15T11:43:20.123904,15.09652243,.0016823,98.0695,18.6836,120.8764,239.4120,0,U,41851,999,52491,.119E-3,.1849E-4,0
AEROCUBE 8D,2016-067E,2026-06-15T10:46:25.131072,15.24376777,.0004607,98.0683,36.4883,127.5368,232.6287,0,U,41852,999,52580,.25996E-3,.6288E-4,0
AEROCUBE 8C,2016-067F,2026-06-15T12:57:19.127808,15.24626627,.0006667,98.0553,33.8160,73.5948,286.6020,0,U,41853,999,52581,.24994E-3,.609E-4,0
CORVUS BC2,2017-042X,2026-06-15T09:37:47.467776,15.06284861,.0014226,97.4057,327.8202,116.1599,244.1094,0,U,42846,999,48679,.24801E-3,.3591E-4,0
CORVUS BC1,2017-042Y,2026-06-15T09:30:19.257408,15.06455609,.0013241,97.4092,328.6281,94.7493,265.5247,0,U,42847,999,48682,.23472E-3,.341E-4,0
MAKERSAT 0,2017-073D,2026-06-15T03:43:31.291392,15.32039776,.01051825,97.4630,48.6587,280.3452,78.5946,0,U,43016,999,46615,.39907099E-3,.14625E-3,0
